NORAD_CAT_ID,OBJECT_NAME,OBJECT_TYPE,EPOCH,MEAN_MOTION,ECCENTRICITY,INCLINATION,RA_OF_ASC_NODE,ARG_OF_PERICENTER,MEAN_ANOMALY,BSTAR,MEAN_MOTION_DOT,MEAN_MOTION_DDOT,TLE_LINE0,TLE_LINE1,TLE_LINE2,SEMIMAJOR_AXIS,PERIOD,APOGEE,PERIGEE,DECAYED
51133.0,STARLINK-3356,PAYLOAD,2022-02-02 22:00:00,15.78258637,0.000114,53.2172,200.8978,71.6432,87.9551,-0.0050898,-0.00812278,0.0,0 STARLINK-3356,1 51133U 22005AF  22033.91667824 -.00812278  00000-0 -50898-2 0  9997,2 51133  53.2172 200.8978 0001140  71.6432  87.9551 15.78258637  2850,6713.511,91.24,336.142,334.611,0.0
51133.0,STARLINK-3356,PAYLOAD,2022-02-03 06:00:00,15.77676825,0.0001164,53.2175,199.2345,67.0083,187.2431,-0.0052725,-0.00818956,0.0,0 STARLINK-3356,1 51133U 22005AF  22034.25001157 -.00818956  00000-0 -52725-2 0  9996,2 51133  53.2175 199.2345 0001164  67.0083 187.2431 15.77676825  3718,6715.1619999999975,91.273,337.80800000000005,336.245,0.0
51133.0,STARLINK-3356,PAYLOAD,2022-02-03 14:00:01,15.77094793,0.0001234,53.2177,197.5753,48.5837,299.6151,-0.0054565,-0.00825074,0.0,0 STARLINK-3356,1 51133U 22005AF  22034.58334491 -.00825074  00000-0 -54565-2 0  9995,2 51133  53.2177 197.5753 0001234  48.5837 299.6151 15.77094793  2953,6716.814,91.307,339.5080000000001,337.85,0.0
51133.0,STARLINK-3356,PAYLOAD,2022-02-03 22:00:01,15.76504465,0.0001149,53.2174,195.9182,56.8488,24.6617,-0.0055456,-0.0081744,0.0,0 STARLINK-3356,1 51133U 22005AF  22034.91668981 -.00817440  00000-0 -55456-2 0  9994,2 51133  53.2174 195.9182 0001149  56.8488  24.6617 15.76504465  3019,6718.49,91.341,341.1269999999999,339.584,0.0
51133.0,STARLINK-3356,PAYLOAD,2022-02-04 06:00:00,15.75917954,0.0001364,53.2175,194.2592,50.8395,123.1477,-0.0056799999999999,-0.0081593,0.0,0 STARLINK-3356,1 51133U 22005AF  22035.25001157 -.00815930  00000-0 -56800-2 0  9994,2 51133  53.2175 194.2592 0001364  50.8395 123.1477 15.75917954  3869,6720.156999999997,91.375,342.939,341.106,0.0
51133.0,STARLINK-3356,PAYLOAD,2022-02-04 14:00:01,15.75334425,0.0001449,53.2176,192.6047,46.3561,219.5326,-0.0058609,-0.00820103,0.0,0 STARLINK-3356,1 51133U 22005AF  22035.58335648 -.00820103  00000-0 -58609-2 0  9992,2 51133  53.2176 192.6047 0001449  46.3561 219.5326 15.75334425  3124,6721.816999999999,91.409,344.656,342.708,0.0
51133.0,STARLINK-3356,PAYLOAD,2022-02-04 22:00:00,15.74753332,0.0001069,53.2173,190.9519,63.5156,293.4375,-0.0060661,-0.00826645,0.0,0 STARLINK-3356,1 51133U 22005AF  22035.91667824 -.00826645  00000-0 -60661-2 0  9991,2 51133  53.2173 190.9519 0001069  63.5156 293.4375 15.74753332  3176,6723.47,91.443,346.05400000000014,344.616,0.0
51133.0,STARLINK-3356,PAYLOAD,2022-02-05 06:00:00,15.74040649,0.0001448,53.2183,189.2995,33.6573,53.7913,-0.0048981,-0.00660183,0.0,0 STARLINK-3356,1 51133U 22005AF  22036.25001157 -.00660183  00000-0 -48981-2 0  9994,2 51133  53.2183 189.2995 0001448  33.6573  53.7913 15.74040649  4028,6725.5,91.484,348.338,346.391,0.0
51133.0,STARLINK-3356,PAYLOAD,2022-02-06 19:45:09,15.72802127,0.0001438,53.2222,181.5286,30.8823,329.2281,0.0040169,0.00594792,0.0,0 STARLINK-3356,1 51133U 22005AF  22037.82303061  .00594792  00000-0  40169-2 0  9997,2 51133  53.2222 181.5286 0001438  30.8823 329.2281 15.72802127  4277,6729.03,91.556,351.862,349.927,0.0
51133.0,STARLINK-3356,PAYLOAD,2022-02-07 00:19:07,15.74206625,0.0003658,53.2223,180.5838,294.8534,65.2106,-0.0054979999999999,-0.0074001,0.0,0 STARLINK-3356,1 51133U 22005AF  22038.01327618 -.00740010  00000-0 -54980-2 0  9997,2 51133  53.2223 180.5838 0003658 294.8534  65.2106 15.74206625  4307,6725.026999999999,91.475,349.352,344.432,0.0
51133.0,STARLINK-3356,PAYLOAD,2022-02-07 12:30:42,15.73346492,5.28e-05,53.2218,178.0682,347.9226,12.1781,-0.0010765,-0.00149959,0.0,0 STARLINK-3356,1 51133U 22005AF  22038.52132700 -.00149959  00000-0 -10765-2 0  9997,2 51133  53.2218 178.0682 0000528 347.9226  12.1781 15.73346492  4385,6727.478,91.525,349.6980000000001,348.987,0.0
51133.0,STARLINK-3356,PAYLOAD,2022-02-08 23:34:53,15.73238869,0.0002473,53.2187,170.83700000000005,34.6076,325.5105,0.00019682,0.00027139,0.0,0 STARLINK-3356,1 51133U 22005AF  22039.98256520  .00027139  00000-0  19682-3 0  9996,2 51133  53.2187 170.8370 0002473  34.6076 325.5105 15.73238869  4613,6727.784000000002,91.531,351.31300000000016,347.986,0.0
51133.0,STARLINK-3356,PAYLOAD,2022-02-09 10:15:14,15.73229474,0.0002079,53.2178,168.6381,36.4587,323.6575,0.00015384,0.00021052,0.0,0 STARLINK-3356,1 51133U 22005AF  22040.42725556  .00021052  00000-0  15384-3 0  9990,2 51133  53.2178 168.6381 0002079  36.4587 323.6575 15.73229474  4688,6727.811,91.531,351.075,348.277,0.0
51133.0,STARLINK-3356,PAYLOAD,2022-02-09 14:49:41,15.7322371,0.0001975,53.2163,167.6957,35.9326,324.1827,2.7759e-05,3.28e-05,0.0,0 STARLINK-3356,1 51133U 22005AF  22040.61783720  .00003280  00000-0  27759-4 0  9991,2 51133  53.2163 167.6957 0001975  35.9326 324.1827 15.73223710  3591,6727.828,91.532,351.021,348.36400000000015,0.0
51133.0,STARLINK-3356,PAYLOAD,2022-02-09 20:00:01,15.73182739,0.0002092,53.2172,166.6302,26.756,114.5867,0.00045512,0.00063694,0.0,0 STARLINK-3356,1 51133U 22005AF  22040.83334491  .00063694  00000-0  45512-3 0  9993,2 51133  53.2172 166.6302 0002092  26.7560 114.5867 15.73182739  4741,6727.944,91.534,351.217,348.402,0.0
51133.0,STARLINK-3356,PAYLOAD,2022-02-10 06:00:00,15.73205312,0.0001994,53.2174,164.5516,35.9667,306.363,-1.3018e-05,-2.448e-05,0.0,0 STARLINK-3356,1 51133U 22005AF  22041.25001157 -.00002448  00000-0 -13018-4 0  9999,2 51133  53.2174 164.5516 0001994  35.9667 306.3630 15.73205312  4817,6727.88,91.533,351.087,348.403,0.0
51133.0,STARLINK-3356,PAYLOAD,2022-02-10 13:41:54,15.73198283,0.0001895,53.2173,162.9802,32.9056,327.2082,0.00014101,0.00019214,0.0,0 STARLINK-3356,1 51133U 22005AF  22041.57076817  .00019214  00000-0  14101-3 0  9999,2 51133  53.2173 162.9802 0001895  32.9056 327.2082 15.73198283  3747,6727.9,91.533,351.04,348.49,0.0
51133.0,STARLINK-3356,PAYLOAD,2022-02-10 14:00:01,15.73213759,0.0002077,53.2171,162.9187,24.0911,47.3475,8.9284e-05,0.00011935,0.0,0 STARLINK-3356,1 51133U 22005AF  22041.58335648  .00011935  00000-0  89284-4 0  9997,2 51133  53.2171 162.9187 0002077  24.0911  47.3475 15.73213759  4862,6727.856,91.532,351.11800000000005,348.324,0.0
51133.0,STARLINK-3356,PAYLOAD,2022-02-10 19:47:49,15.73223776,0.0003476,53.2183,161.7213,32.1299,327.9933,0.00019216,0.00026465,0.0,0 STARLINK-3356,1 51133U 22005AF  22041.82487989  .00026465  00000-0  19216-3 0  9991,2 51133  53.2183 161.7213 0003476  32.1299 327.9933 15.73223776  3781,6727.8269999999975,91.532,352.031,347.35400000000016,0.0
51133.0,STARLINK-3356,PAYLOAD,2022-02-11 06:00:00,15.732080300000002,0.0002041,53.2171,159.6174,29.716,219.6306,0.00050795,0.00071302,0.0,0 STARLINK-3356,1 51133U 22005AF  22042.25001157  .00071302  00000-0  50795-3 0  9995,2 51133  53.2171 159.6174 0002041  29.7160 219.6306 15.73208030  4975,6727.871999999999,91.533,351.11,348.36400000000015,0.0
51133.0,STARLINK-3356,PAYLOAD,2022-02-11 14:00:01,15.73316459,0.0002293,53.2174,157.9698,23.7218,314.6618,-0.00071908,-0.00100854,0.0,0 STARLINK-3356,1 51133U 22005AF  22042.58334491 -.00100854  00000-0 -71908-3 0  9997,2 51133  53.2174 157.9698 0002293  23.7218 314.6618 15.73316459  5021,6727.563,91.526,350.971,347.886,0.0
51133.0,STARLINK-3356,PAYLOAD,2022-02-11 14:05:32,15.73283172,0.0002284,53.2178,157.95,33.3009,326.8154,0.00021825,0.0003023,0.0,0 STARLINK-3356,1 51133U 22005AF  22042.58718229  .00030230  00000-0  21825-3 0  9993,2 51133  53.2178 157.9500 0002284  33.3009 326.8154 15.73283172  3902,6727.658,91.528,351.06,347.986,0.0
51133.0,STARLINK-3356,PAYLOAD,2022-02-11 22:00:01,15.73260125,0.0002335,53.2173,156.32,18.8828,48.5562,-0.00039645,-0.00056042,0.0,0 STARLINK-3356,1 51133U 22005AF  22042.91668981 -.00056042  00000-0 -39645-3 0  9999,2 51133  53.2173 156.3200 0002335  18.8828  48.5562 15.73260125  3736,6727.724,91.53,351.16,348.01800000000014,0.0
51133.0,STARLINK-3356,PAYLOAD,2022-02-12 12:57:43,15.73202726,0.0001909,53.2182,153.2342,35.4122,324.7025,-0.0001784,-0.00025586,0.0,0 STARLINK-3356,1 51133U 22005AF  22043.54008696 -.00025586  00000-0 -17840-3 0  9992,2 51133  53.2182 153.2342 0001909  35.4122 324.7025 15.73202726  5173,6727.887,91.533,351.037,348.468,0.0
51133.0,STARLINK-3356,PAYLOAD,2022-02-12 22:00:00,15.73118833,0.0002542,53.2171,151.3721,25.4274,308.6395,0.00015014,0.0002043,0.0,0 STARLINK-3356,1 51133U 22005AF  22043.91667824  .00020430  00000-0  15014-3 0  9999,2 51133  53.2171 151.3721 0002542  25.4274 308.6395 15.73118833  3749,6728.127,91.538,351.702,348.281,0.0
51133.0,STARLINK-3356,PAYLOAD,2022-02-13 04:00:01,15.73205464,0.000247,53.2173,150.1191,29.8596,280.7082,6.6371e-06,3.1e-06,0.0,0 STARLINK-3356,1 51133U 22005AF  22044.16668981  .00000310  00000-0  66371-5 0  9991,2 51133  53.2173 150.1191 0002470  29.8596 280.7082 15.73205464  5274,6727.88,91.533,351.406,348.083,0.0
51133.0,STARLINK-3356,PAYLOAD,2022-02-13 12:00:00,15.73186701,0.0002628,53.2178,148.4861,28.4441,11.1149,0.00011224,0.00015152,0.0,0 STARLINK-3356,1 51133U 22005AF  22044.50001157  .00015152  00000-0  11224-3 0  9990,2 51133  53.2178 148.4861 0002628  28.4441  11.1149 15.73186701  5320,6727.933000000001,91.534,351.566,348.03,0.0
51133.0,STARLINK-3356,PAYLOAD,2022-02-13 14:00:01,15.73180046,0.0002723999999999,53.2178,148.0741,27.8233,123.9656,0.0003055,0.00042439,0.0,0 STARLINK-3356,1 51133U 22005AF  22044.58334491  .00042439  00000-0  30550-3 0  9999,2 51133  53.2178 148.0741 0002724  27.8233 123.9656 15.73180046  3725,6727.9519999999975,91.534,351.65,347.9840000000001,0.0
51133.0,STARLINK-3356,PAYLOAD,2022-02-13 22:00:00,15.73239968,0.0002697,53.2177,146.4241,26.3253,214.3847,8.3463e-05,0.00011128,0.0,0 STARLINK-3356,1 51133U 22005AF  22044.91667824  .00011128  00000-0  83463-4 0  9998,2 51133  53.2177 146.4241 0002697  26.3253 214.3847 15.73239968  5396,6727.781,91.531,351.461,347.832,0.0
